ONEWEB-0538             
1 56047U 23043B   23305.91667824  .00000016  00000+0  00000+0 0  9995
2 56047  87.5870  60.1274 0001526 246.7716  91.1211 13.81044990 33679
ONEWEB-0546             
1 56048U 23043C   23305.91667824  .00000016  00000+0  00000+0 0  9996
2 56048  87.5934  60.0841 0003653 103.9799 177.2407 13.79770923 33670
ONEWEB-0547             
1 56049U 23043D   23305.62931767 -.00001470  00000+0 -35909-2 0  9991
2 56049  87.9213  74.8037 0001369  96.3764 263.7526 13.21835169 31597
ONEWEB-0548             
1 56050U 23043E   23305.91667824  .00000016  00000+0  00000+0 0  9999
2 56050  87.5828  60.1365 0003920  75.9268 121.7027 13.80217709 33675
ONEWEB-0549             
1 56051U 23043F   23305.62142179  .00000098  00000+0  20486-3 0  9993
2 56051  87.9223  74.8073 0001581  93.3783 266.7532 13.21824769 31599
ONEWEB-0550             
1 56052U 23043G   23305.38171887  .00000221  00000+0  50258-3 0  9993
2 56052  87.9228  74.8668 0001818  90.8862 269.2480 13.21829531 31567
ONEWEB-0551             
1 56053U 23043H   23305.83295933 -.00007027  00000+0 -18690-1 0  9998
2 56053  87.8966  90.0211 0000885  90.3340 269.7892 13.15634446 31305
ONEWEB-0552             
1 56054U 23043J   23305.60250355  .00000127  00000+0  27496-3 0  9991
2 56054  87.9230  74.8337 0001770  83.8930 276.2406 13.21829210 31593
